{
  "type": "FeatureCollection",
  "features": [
    {
      "type": "Feature",
      "properties": {
        "norad_id": 41866,
        "name": "GOES 16",
        "group": "weather",
        "lat": -0.03111614619069748,
        "lon": -66.63865999859354,
        "alt_km": 35774.44580669921,
        "timestamp": "2025-12-04T21:36:15.516568+00:00",
        "meta_object_name": "GOES 16",
        "meta_object_id": "2016-071A",
        "meta_epoch": "2025-12-04T11:30:58.872384",
        "meta_mean_motion": 1.00270678,
        "meta_eccentricity": 0.00034612,
        "meta_inclination": 0.0623,
        "meta_ra_of_asc_node": 104.8756,
        "meta_arg_of_pericenter": 153.1036,
        "meta_mean_anomaly": 243.6464,
        "meta_ephemeris_type": 0,
        "meta_classification_type": "U",
        "meta_norad_cat_id": 41866,
        "meta_element_set_no": 999,
        "meta_rev_at_epoch": 3315,
        "meta_bstar": 0,
        "meta_mean_motion_dot": -7.6e-07,
        "meta_mean_motion_ddot": 0,
        "tle_line1": "1 41866U 16071A   25338.47984806 -.00000076  00000+0  00000+0 0  9999",
        "tle_line2": "2 41866   0.0623 104.8756 0003461 153.1036 243.6464  1.00270678 33154"
      },
      "geometry": {
        "type": "Point",
        "coordinates": [
          -66.63865999859354,
          -0.03111614619069748
        ]
      }
    },
    {
      "type": "Feature",
      "properties": {
        "norad_id": 41882,
        "name": "FENGYUN 4A",
        "group": "weather",
        "lat": 1.7899061023821787,
        "lon": 161.7192409288868,
        "alt_km": 35774.74103192903,
        "timestamp": "2025-12-04T21:36:15.516581+00:00",
        "meta_object_name": "FENGYUN 4A",
        "meta_object_id": "2016-077A",
        "meta_epoch": "2025-12-04T14:18:46.240128",
        "meta_mean_motion": 1.00277548,
        "meta_eccentricity": 0.00050544,
        "meta_inclination": 1.8271,
        "meta_ra_of_asc_node": 82.471,
        "meta_arg_of_pericenter": 142.5089,
        "meta_mean_anomaly": 187.135,
        "meta_ephemeris_type": 0,
        "meta_classification_type": "U",
        "meta_norad_cat_id": 41882,
        "meta_element_set_no": 999,
        "meta_rev_at_epoch": 3297,
        "meta_bstar": 0,
        "meta_mean_motion_dot": -3.43e-06,
        "meta_mean_motion_ddot": 0,
        "tle_line1": "1 41882U 16077A   25338.59636852 -.00000343  00000+0  00000+0 0  9998",
        "tle_line2": "2 41882   1.8271  82.4710 0005054 142.5089 187.1350  1.00277548 32979"
      },
      "geometry": {
        "type": "Point",
        "coordinates": [
          161.7192409288868,
          1.7899061023821787
        ]
      }
    },
    {
      "type": "Feature",
      "properties": {
        "norad_id": 41884,
        "name": "CYGFM05",
        "group": "weather",
        "lat": 1.7524176401828715,
        "lon": -84.18766895439015,
        "alt_km": 421.20828586104017,
        "timestamp": "2025-12-04T21:36:15.516592+00:00",
        "meta_object_name": "CYGFM05",
        "meta_object_id": "2016-078A",
        "meta_epoch": "2025-12-04T14:39:01.260000",
        "meta_mean_motion": 15.47185715,
        "meta_eccentricity": 0.00094017,
        "meta_inclination": 34.9584,
        "meta_ra_of_asc_node": 100.2137,
        "meta_arg_of_pericenter": 105.694,
        "meta_mean_anomaly": 254.4819,
        "meta_ephemeris_type": 0,
        "meta_classification_type": "U",
        "meta_norad_cat_id": 41884,
        "meta_element_set_no": 999,
        "meta_rev_at_epoch": 49850,
        "meta_bstar": 0.00070479497,
        "meta_mean_motion_dot": 0.00037095,
        "meta_mean_motion_ddot": 0,
        "tle_line1": "1 41884U 16078A   25338.61043125  .00037095  00000+0  70479-3 0  9993",
        "tle_line2": "2 41884  34.9584 100.2137 0009401 105.6940 254.4819 15.47185715498506"
      },
      "geometry": {
        "type": "Point",
        "coordinates": [
          -84.18766895439015,
          1.7524176401828715
        ]
      }
    },
    {
      "type": "Feature",
      "properties": {
        "norad_id": 41885,
        "name": "CYGFM04",
        "group": "weather",
        "lat": -11.502575344245185,
        "lon": 56.373897180564946,
        "alt_km": 422.68702848306293,
        "timestamp": "2025-12-04T21:36:15.516602+00:00",
        "meta_object_name": "CYGFM04",
        "meta_object_id": "2016-078B",
        "meta_epoch": "2025-12-04T15:30:30.236256",
        "meta_mean_motion": 15.49858101,
        "meta_eccentricity": 0.00084837,
        "meta_inclination": 34.9351,
        "meta_ra_of_asc_node": 74.9891,
        "meta_arg_of_pericenter": 135.8946,
        "meta_mean_anomaly": 224.2453,
        "meta_ephemeris_type": 0,
        "meta_classification_type": "U",
        "meta_norad_cat_id": 41885,
        "meta_element_set_no": 999,
        "meta_rev_at_epoch": 49868,
        "meta_bstar": 0.00073562072,
        "meta_mean_motion_dot": 0.00042553,
        "meta_mean_motion_ddot": 0,
        "tle_line1": "1 41885U 16078B   25338.64618329  .00042553  00000+0  73562-3 0  9992",
        "tle_line2": "2 41885  34.9351  74.9891 0008483 135.8946 224.2453 15.49858101498689"
      },
      "geometry": {
        "type": "Point",
        "coordinates": [
          56.373897180564946,
          -11.502575344245185
        ]
      }
    },
    {
      "type": "Feature",
      "properties": {
        "norad_id": 41886,
        "name": "CYGFM02",
        "group": "weather",
        "lat": -24.271782777553863,
        "lon": 31.524944713803905,
        "alt_km": 421.4701186138527,
        "timestamp": "2025-12-04T21:36:15.516614+00:00",
        "meta_object_name": "CYGFM02",
        "meta_object_id": "2016-078C",
        "meta_epoch": "2025-12-04T15:37:24.347136",
        "meta_mean_motion": 15.51203818,
        "meta_eccentricity": 0.0010208,
        "meta_inclination": 34.9438,
        "meta_ra_of_asc_node": 73.3872,
        "meta_arg_of_pericenter": 135.3392,
        "meta_mean_anomaly": 224.8154,
        "meta_ephemeris_type": 0,
        "meta_classification_type": "U",
        "meta_norad_cat_id": 41886,
        "meta_element_set_no": 999,
        "meta_rev_at_epoch": 49881,
        "meta_bstar": 0.00072442613,
        "meta_mean_motion_dot": 0.00044003,
        "meta_mean_motion_ddot": 0,
        "tle_line1": "1 41886U 16078C   25338.65097624  .00044003  00000+0  72443-3 0  9992",
        "tle_line2": "2 41886  34.9438  73.3872 0010208 135.3392 224.8154 15.51203818498817"
      },
      "geometry": {
        "type": "Point",
        "coordinates": [
          31.524944713803905,
          -24.271782777553863
        ]
      }
    },
    {
      "type": "Feature",
      "properties": {
        "norad_id": 41887,
        "name": "CYGFM01",
        "group": "weather",
        "lat": -13.935955915449686,
        "lon": -58.45505543581467,
        "alt_km": 425.30516833038564,
        "timestamp": "2025-12-04T21:36:15.516625+00:00",
        "meta_object_name": "CYGFM01",
        "meta_object_id": "2016-078D",
        "meta_epoch": "2025-12-04T14:31:57.855072",
        "meta_mean_motion": 15.47751963,
        "meta_eccentricity": 0.00089831,
        "meta_inclination": 34.9415,
        "meta_ra_of_asc_node": 102.652,
        "meta_arg_of_pericenter": 97.1163,
        "meta_mean_anomaly": 263.058,
        "meta_ephemeris_type": 0,
        "meta_classification_type": "U",
        "meta_norad_cat_id": 41887,
        "meta_element_set_no": 999,
        "meta_rev_at_epoch": 49844,
        "meta_bstar": 0.00071841752,
        "meta_mean_motion_dot": 0.00038571,
        "meta_mean_motion_ddot": 0,
        "tle_line1": "1 41887U 16078D   25338.60553073  .00038571  00000+0  71842-3 0  9998",
        "tle_line2": "2 41887  34.9415 102.6520 0008983  97.1163 263.0580 15.47751963498448"
      },
      "geometry": {
        "type": "Point",
        "coordinates": [
          -58.45505543581467,
          -13.935955915449686
        ]
      }
    },
    {
      "type": "Feature",
      "properties": {
        "norad_id": 41888,
        "name": "CYGFM08",
        "group": "weather",
        "lat": -21.348942227907326,
        "lon": -62.15232699837511,
        "alt_km": 421.43792986635344,
        "timestamp": "2025-12-04T21:36:15.516637+00:00",
        "meta_object_name": "CYGFM08",
        "meta_object_id": "2016-078E",
        "meta_epoch": "2025-12-04T14:28:31.657152",
        "meta_mean_motion": 15.4893455,
        "meta_eccentricity": 0.00107085,
        "meta_inclination": 34.9456,
        "meta_ra_of_asc_node": 85.7538,
        "meta_arg_of_pericenter": 122.7202,
        "meta_mean_anomaly": 237.4553,
        "meta_ephemeris_type": 0,
        "meta_classification_type": "U",
        "meta_norad_cat_id": 41888,
        "meta_element_set_no": 999,
        "meta_rev_at_epoch": 49867,
        "meta_bstar": 0.00073658423,
        "meta_mean_motion_dot": 0.00041266,
        "meta_mean_motion_ddot": 0,
        "tle_line1": "1 41888U 16078E   25338.60314418  .00041266  00000+0  73658-3 0  9999",
        "tle_line2": "2 41888  34.9456  85.7538 0010708 122.7202 237.4553 15.48934550498677"
      },
      "geometry": {
        "type": "Point",
        "coordinates": [
          -62.15232699837511,
          -21.348942227907326
        ]
      }
    }
  ]
}